start=new Date('2021-09-29T00:00:00.000Z').valueOf();
sats=[{"COUNTRY_CODE":"US","MEAN_MOTION":"15.06394317","ELEMENT_SET_NO":"999","OBJECT_ID":"2020-055AH","TIME_SYSTEM":"UTC","BSTAR":"0.00028453000000","FILE":"3132662","SITE":"AFETR","OBJECT_TYPE":"PAYLOAD","APOAPSIS":"548.264","RCS_SIZE":"LARGE","GP_ID":"185714621","CENTER_NAME":"EARTH","REV_AT_EPOCH":"6438","PERIOD":"95.593","MEAN_MOTION_DOT":"0.00003958","ECCENTRICITY":"0.00014910","LAUNCH_DATE":"2020-08-07","CLASSIFICATION_TYPE":"U","EPOCH":"2021-09-28T12:54:42.144192","INCLINATION":"53.0542","MEAN_ELEMENT_THEORY":"SGP4","TLE_LINE2":"2 46058  53.0542 203.2224 0001491  71.1871 288.9280 15.06394317 64386","TLE_LINE1":"1 46058U 20055AH  21271.53798778  .00003958  00000-0  28453-3 0  9992","DECAY_DATE":null,"PERIAPSIS":"546.198","NORAD_CAT_ID":"46058","REF_FRAME":"TEME","RA_OF_ASC_NODE":"203.2224","ARG_OF_PERICENTER":"71.1871","MEAN_ANOMALY":"288.9280","EPHEMERIS_TYPE":"0","MEAN_MOTION_DDOT":"0.0000000000000","OBJECT_NAME":"STARLINK-1564","SEMIMAJOR_AXIS":"6925.366"},{"NORAD_CAT_ID":"46059","PERIAPSIS":"546.120","TLE_LINE1":"1 46059U 20055AJ  21271.54537314  .00000572  00000-0  57287-4 0  9998","DECAY_DATE":null,"MEAN_ELEMENT_THEORY":"SGP4","TLE_LINE2":"2 46059  53.0532 203.2049 0001601  65.4751 294.6404 15.06395005 64340","INCLINATION":"53.0532","OBJECT_NAME":"STARLINK-1570","MEAN_MOTION_DDOT":"0.0000000000000","SEMIMAJOR_AXIS":"6925.364","EPHEMERIS_TYPE":"0","MEAN_ANOMALY":"294.6404","ARG_OF_PERICENTER":"65.4751","RA_OF_ASC_NODE":"203.2049","REF_FRAME":"TEME","OBJECT_TYPE":"PAYLOAD","SITE":"AFETR","TIME_SYSTEM":"UTC","FILE":"3132662","BSTAR":"0.00005728700000","OBJECT_ID":"2020-055AJ","ELEMENT_SET_NO":"999","COUNTRY_CODE":"US","MEAN_MOTION":"15.06395005","LAUNCH_DATE":"2020-08-07","CLASSIFICATION_TYPE":"U","EPOCH":"2021-09-28T13:05:20.239296","ECCENTRICITY":"0.00016010","REV_AT_EPOCH":"6434","MEAN_MOTION_DOT":"0.00000572","PERIOD":"95.592","CENTER_NAME":"EARTH","RCS_SIZE":"LARGE","GP_ID":"185715374","APOAPSIS":"548.338"},{"OBJECT_TYPE":"PAYLOAD","FILE":"3132662","BSTAR":"0.00011464000000","TIME_SYSTEM":"UTC","SITE":"AFETR","MEAN_MOTION":"15.06409453","COUNTRY_CODE":"US","OBJECT_ID":"2020-055AK","ELEMENT_SET_NO":"999","ECCENTRICITY":"0.00015910","EPOCH":"2021-09-28T13:00:00.308736","CLASSIFICATION_TYPE":"U","LAUNCH_DATE":"2020-08-07","MEAN_MOTION_DOT":"0.00001427","PERIOD":"95.592","REV_AT_EPOCH":"6435","GP_ID":"185714123","RCS_SIZE":"LARGE","CENTER_NAME":"EARTH","APOAPSIS":"548.286","NORAD_CAT_ID":"46060","PERIAPSIS":"546.083","TLE_LINE2":"2 46060  53.0544 203.2116 0001591  72.8918 287.2245 15.06409453 64350","MEAN_ELEMENT_THEORY":"SGP4","DECAY_DATE":null,"TLE_LINE1":"1 46060U 20055AK  21271.54167024  .00001427  00000-0  11464-3 0  9993","INCLINATION":"53.0544","EPHEMERIS_TYPE":"0","SEMIMAJOR_AXIS":"6925.320","MEAN_MOTION_DDOT":"0.0000000000000","OBJECT_NAME":"STARLINK-1572","MEAN_ANOMALY":"287.2245","REF_FRAME":"TEME","RA_OF_ASC_NODE":"203.2116","ARG_OF_PERICENTER":"72.8918"},{"ECCENTRICITY":"0.00017530","CLASSIFICATION_TYPE":"U","EPOCH":"2021-09-28T12:49:24.787488","LAUNCH_DATE":"2020-08-07","MEAN_MOTION_DOT":"0.00001147","PERIOD":"95.593","REV_AT_EPOCH":"6438","GP_ID":"185714373","RCS_SIZE":"LARGE","CENTER_NAME":"EARTH","APOAPSIS":"548.454","OBJECT_TYPE":"PAYLOAD","FILE":"3132662","BSTAR":"0.00009589600000","TIME_SYSTEM":"UTC","SITE":"AFETR","MEAN_MOTION":"15.06391422","COUNTRY_CODE":"US","ELEMENT_SET_NO":"999","OBJECT_ID":"2020-055AL","EPHEMERIS_TYPE":"0","SEMIMAJOR_AXIS":"6925.375","OBJECT_NAME":"STARLINK-1573","MEAN_MOTION_DDOT":"0.0000000000000","MEAN_ANOMALY":"292.2614","REF_FRAME":"TEME","RA_OF_ASC_NODE":"203.2354","ARG_OF_PERICENTER":"67.8561","NORAD_CAT_ID":"46061","PERIAPSIS":"546.026","TLE_LINE2":"2 46061  53.0538 203.2354 0001753  67.8561 292.2614 15.06391422 64381","MEAN_ELEMENT_THEORY":"SGP4","DECAY_DATE":null,"TLE_LINE1":"1 46061U 20055AL  21271.53431467  .00001147  00000-0  95896-4 0  9999","INCLINATION":"53.0538"},{"APOAPSIS":"548.243","CENTER_NAME":"EARTH","GP_ID":"185715122","RCS_SIZE":"LARGE","MEAN_MOTION_DOT":"0.00000553","PERIOD":"95.592","REV_AT_EPOCH":"6433","CLASSIFICATION_TYPE":"U","EPOCH":"2021-09-28T10:26:05.899200","LAUNCH_DATE":"2020-08-07","ECCENTRICITY":"0.00014770","OBJECT_ID":"2020-055AM","ELEMENT_SET_NO":"999","MEAN_MOTION":"15.06397968","COUNTRY_CODE":"US","SITE":"AFETR","FILE":"3132662","BSTAR":"0.00005599500000","TIME_SYSTEM":"UTC","OBJECT_TYPE":"PAYLOAD","ARG_OF_PERICENTER":"73.1021","REF_FRAME":"TEME","RA_OF_ASC_NODE":"203.6982","MEAN_ANOMALY":"287.0130","SEMIMAJOR_AXIS":"6925.355","MEAN_MOTION_DDOT":"0.0000000000000","OBJECT_NAME":"STARLINK-1574","EPHEMERIS_TYPE":"0","INCLINATION":"53.0551","DECAY_DATE":null,"TLE_LINE1":"1 46062U 20055AM  21271.43479050  .00000553  00000-0  55995-4 0  9995","TLE_LINE2":"2 46062  53.0551 203.6982 0001477  73.1021 287.0130 15.06397968 64333","MEAN_ELEMENT_THEORY":"SGP4","PERIAPSIS":"546.197","NORAD_CAT_ID":"46062"},{"OBJECT_TYPE":"PAYLOAD","FILE":"3132662","BSTAR":"0.00005478700000","TIME_SYSTEM":"UTC","SITE":"AFETR","COUNTRY_CODE":"US","MEAN_MOTION":"15.06403974","ELEMENT_SET_NO":"999","OBJECT_ID":"2020-055AN","ECCENTRICITY":"0.00017370","EPOCH":"2021-09-28T10:20:46.911264","CLASSIFICATION_TYPE":"U","LAUNCH_DATE":"2020-08-07","MEAN_MOTION_DOT":"0.00000535","PERIOD":"95.592","REV_AT_EPOCH":"6436","GP_ID":"185714874","RCS_SIZE":"LARGE","CENTER_NAME":"EARTH","APOAPSIS":"548.404","NORAD_CAT_ID":"46063","PERIAPSIS":"545.998","TLE_LINE2":"2 46063  53.0547 203.7119 0001737  67.9539 292.1635 15.06403974 64361","MEAN_ELEMENT_THEORY":"SGP4","DECAY_DATE":null,"TLE_LINE1":"1 46063U 20055AN  21271.43109851  .00000535  00000-0  54787-4 0  9993","INCLINATION":"53.0547","EPHEMERIS_TYPE":"0","SEMIMAJOR_AXIS":"6925.336","OBJECT_NAME":"STARLINK-1577","MEAN_MOTION_DDOT":"0.0000000000000","MEAN_ANOMALY":"292.1635","RA_OF_ASC_NODE":"203.7119","REF_FRAME":"TEME","ARG_OF_PERICENTER":"67.9539"},{"EPOCH":"2021-09-28T12:44:05.466048","CLASSIFICATION_TYPE":"U","LAUNCH_DATE":"2020-08-07","ECCENTRICITY":"0.00016260","PERIOD":"95.592","MEAN_MOTION_DOT":"0.00000478","REV_AT_EPOCH":"6438","CENTER_NAME":"EARTH","GP_ID":"185713623","RCS_SIZE":"LARGE","APOAPSIS":"548.337","OBJECT_TYPE":"PAYLOAD","SITE":"AFETR","BSTAR":"0.00005096700000","FILE":"3132662","TIME_SYSTEM":"UTC","OBJECT_ID":"2020-055AP","ELEMENT_SET_NO":"999","COUNTRY_CODE":"US","MEAN_MOTION":"15.06400979","SEMIMAJOR_AXIS":"6925.346","MEAN_MOTION_DDOT":"0.0000000000000","OBJECT_NAME":"STARLINK-1583","EPHEMERIS_TYPE":"0","MEAN_ANOMALY":"281.9143","ARG_OF_PERICENTER":"78.2029","RA_OF_ASC_NODE":"203.2577","REF_FRAME":"TEME","NORAD_CAT_ID":"46064","PERIAPSIS":"546.084","DECAY_DATE":null,"TLE_LINE1":"1 46064U 20055AP  21271.53061882  .00000478  00000-0  50967-4 0  9998","TLE_LINE2":"2 46064  53.0536 203.2577 0001626  78.2029 281.9143 15.06400979 64383","MEAN_ELEMENT_THEORY":"SGP4","INCLINATION":"53.0536"},{"TLE_LINE2":"2 46065  53.0549 183.6258 0002045  59.1575 300.9615 15.06395872 64634","MEAN_ELEMENT_THEORY":"SGP4","DECAY_DATE":null,"TLE_LINE1":"1 46065U 20055AQ  21271.45780345  .00000119  00000-0  26881-4 0  9992","INCLINATION":"53.0549","NORAD_CAT_ID":"46065","PERIAPSIS":"545.810","REF_FRAME":"TEME","RA_OF_ASC_NODE":"183.6258","ARG_OF_PERICENTER":"59.1575","EPHEMERIS_TYPE":"0","SEMIMAJOR_AXIS":"6925.361","OBJECT_NAME":"STARLINK-1515","MEAN_MOTION_DDOT":"0.0000000000000","MEAN_ANOMALY":"300.9615","MEAN_MOTION":"15.06395872","COUNTRY_CODE":"US","OBJECT_ID":"2020-055AQ","ELEMENT_SET_NO":"999","OBJECT_TYPE":"PAYLOAD","BSTAR":"0.00002688100000","FILE":"3132662","TIME_SYSTEM":"UTC","SITE":"AFETR","GP_ID":"185713873","RCS_SIZE":"LARGE","CENTER_NAME":"EARTH","APOAPSIS":"548.642","ECCENTRICITY":"0.00020450","CLASSIFICATION_TYPE":"U","EPOCH":"2021-09-28T10:59:14.218080","LAUNCH_DATE":"2020-08-07","MEAN_MOTION_DOT":"0.00000119","PERIOD":"95.592","REV_AT_EPOCH":"6463"},{"APOAPSIS":"548.348","CENTER_NAME":"EARTH","GP_ID":"185723547","RCS_SIZE":"LARGE","PERIOD":"95.592","MEAN_MOTION_DOT":"-0.00000230","REV_AT_EPOCH":"6415","EPOCH":"2021-09-28T17:28:03.652320","CLASSIFICATION_TYPE":"U","LAUNCH_DATE":"2020-08-07","ECCENTRICITY":"0.00016340","OBJECT_ID":"2020-055AR","ELEMENT_SET_NO":"999","COUNTRY_CODE":"US","MEAN_MOTION":"15.06399176","SITE":"AFETR","FILE":"3132920","BSTAR":"0.00000346250000","TIME_SYSTEM":"UTC","OBJECT_TYPE":"PAYLOAD","ARG_OF_PERICENTER":"81.5848","RA_OF_ASC_NODE":"182.3813","REF_FRAME":"TEME","MEAN_ANOMALY":"278.5326","SEMIMAJOR_AXIS":"6925.351","MEAN_MOTION_DDOT":"0.0000000000000","OBJECT_NAME":"STARLINK-1525","EPHEMERIS_TYPE":"0","INCLINATION":"53.0546","DECAY_DATE":null,"TLE_LINE1":"1 46066U 20055AR  21271.72782005 -.00000230  00000-0  34625-5 0  9999","TLE_LINE2":"2 46066  53.0546 182.3813 0001634  81.5848 278.5326 15.06399176 64157","MEAN_ELEMENT_THEORY":"SGP4","PERIAPSIS":"546.084","NORAD_CAT_ID":"46066"},{"APOAPSIS":"548.413","RCS_SIZE":"LARGE","GP_ID":"185715375","CENTER_NAME":"EARTH","REV_AT_EPOCH":"6465","PERIOD":"95.593","MEAN_MOTION_DOT":"0.00000188","ECCENTRICITY":"0.00016850","LAUNCH_DATE":"2020-08-07","EPOCH":"2021-09-28T11:11:13.256160","CLASSIFICATION_TYPE":"U","COUNTRY_CODE":"US","MEAN_MOTION":"15.06389398","OBJECT_ID":"2020-055AS","ELEMENT_SET_NO":"999","TIME_SYSTEM":"UTC","BSTAR":"0.00003150200000","FILE":"3132662","SITE":"AFETR","OBJECT_TYPE":"PAYLOAD","REF_FRAME":"TEME","RA_OF_ASC_NODE":"183.5613","ARG_OF_PERICENTER":"75.2844","MEAN_ANOMALY":"284.8332","EPHEMERIS_TYPE":"0","MEAN_MOTION_DDOT":"0.0000000000000","OBJECT_NAME":"STARLINK-1529","SEMIMAJOR_AXIS":"6925.381","INCLINATION":"53.0542","MEAN_ELEMENT_THEORY":"SGP4","TLE_LINE2":"2 46067  53.0542 183.5613 0001685  75.2844 284.8332 15.06389398 64654","TLE_LINE1":"1 46067U 20055AS  21271.46612565  .00000188  00000-0  31502-4 0  9995","DECAY_DATE":null,"PERIAPSIS":"546.079","NORAD_CAT_ID":"46067"}];
